{
  "type": "FeatureCollection",
  "features": [
    {
      "type": "Feature",
      "properties": {
        "norad_id": 24876,
        "name": "GPS BIIR-2  (PRN 13)",
        "group": "gps-ops",
        "lat": 4.161351567499895,
        "lon": 109.08614975805459,
        "alt_km": 20022.464054954733,
        "timestamp": "2025-12-02T06:27:53.272574+00:00",
        "meta_object_name": "GPS BIIR-2  (PRN 13)",
        "meta_object_id": "1997-035A",
        "meta_epoch": "2025-12-01T06:22:04.295136",
        "meta_mean_motion": 2.00563437,
        "meta_eccentricity": 0.00966527,
        "meta_inclination": 55.8895,
        "meta_ra_of_asc_node": 106.3177,
        "meta_arg_of_pericenter": 57.0227,
        "meta_mean_anomaly": 303.8812,
        "meta_ephemeris_type": 0,
        "meta_classification_type": "U",
        "meta_norad_cat_id": 24876,
        "meta_element_set_no": 999,
        "meta_rev_at_epoch": 20798,
        "meta_bstar": 0,
        "meta_mean_motion_dot": 4.1e-07,
        "meta_mean_motion_ddot": 0,
        "tle_line1": "1 24876U 97035A   25335.26532749  .00000041  00000+0  00000+0 0  9990",
        "tle_line2": "2 24876  55.8895 106.3177 0096652  57.0227 303.8812  2.00563437207986"
      },
      "geometry": {
        "type": "Point",
        "coordinates": [
          109.08614975805459,
          4.161351567499895
        ]
      }
    },
    {
      "type": "Feature",
      "properties": {
        "norad_id": 26360,
        "name": "GPS BIIR-4  (PRN 20)",
        "group": "gps-ops",
        "lat": 54.37625288046001,
        "lon": 129.98137330596265,
        "alt_km": 20258.138091935427,
        "timestamp": "2025-12-02T06:27:53.272602+00:00",
        "meta_object_name": "GPS BIIR-4  (PRN 20)",
        "meta_object_id": "2000-025A",
        "meta_epoch": "2025-12-01T03:33:33.460416",
        "meta_mean_motion": 2.00568535,
        "meta_eccentricity": 0.00387571,
        "meta_inclination": 55.0383,
        "meta_ra_of_asc_node": 27.307,
        "meta_arg_of_pericenter": 240.8414,
        "meta_mean_anomaly": 127.3277,
        "meta_ephemeris_type": 0,
        "meta_classification_type": "U",
        "meta_norad_cat_id": 26360,
        "meta_element_set_no": 999,
        "meta_rev_at_epoch": 18730,
        "meta_bstar": 0,
        "meta_mean_motion_dot": -6.8e-07,
        "meta_mean_motion_ddot": 0,
        "tle_line1": "1 26360U 00025A   25335.14830394 -.00000068  00000+0  00000+0 0  9997",
        "tle_line2": "2 26360  55.0383  27.3070 0038757 240.8414 127.3277  2.00568535187307"
      },
      "geometry": {
        "type": "Point",
        "coordinates": [
          129.98137330596265,
          54.37625288046001
        ]
      }
    },
    {
      "type": "Feature",
      "properties": {
        "norad_id": 26407,
        "name": "GPS BIIR-5  (PRN 22)",
        "group": "gps-ops",
        "lat": -46.78622457538545,
        "lon": 174.589204591929,
        "alt_km": 19852.274535609828,
        "timestamp": "2025-12-02T06:27:53.272618+00:00",
        "meta_object_name": "GPS BIIR-5  (PRN 22)",
        "meta_object_id": "2000-040A",
        "meta_epoch": "2025-12-01T02:24:31.416768",
        "meta_mean_motion": 2.00567692,
        "meta_eccentricity": 0.01266559,
        "meta_inclination": 54.8937,
        "meta_ra_of_asc_node": 223.032,
        "meta_arg_of_pericenter": 301.5907,
        "meta_mean_anomaly": 231.5341,
        "meta_ephemeris_type": 0,
        "meta_classification_type": "U",
        "meta_norad_cat_id": 26407,
        "meta_element_set_no": 999,
        "meta_rev_at_epoch": 18597,
        "meta_bstar": 0,
        "meta_mean_motion_dot": 4.5e-07,
        "meta_mean_motion_ddot": 0,
        "tle_line1": "1 26407U 00040A   25335.10036362  .00000045  00000+0  00000+0 0  9999",
        "tle_line2": "2 26407  54.8937 223.0320 0126655 301.5907 231.5341  2.00567692185975"
      },
      "geometry": {
        "type": "Point",
        "coordinates": [
          174.589204591929,
          -46.78622457538545
        ]
      }
    },
    {
      "type": "Feature",
      "properties": {
        "norad_id": 27663,
        "name": "GPS BIIR-8  (PRN 16)",
        "group": "gps-ops",
        "lat": 51.72505730024818,
        "lon": -74.41574199676063,
        "alt_km": 19812.257837319266,
        "timestamp": "2025-12-02T06:27:53.272632+00:00",
        "meta_object_name": "GPS BIIR-8  (PRN 16)",
        "meta_object_id": "2003-005A",
        "meta_epoch": "2025-12-01T05:43:03.661248",
        "meta_mean_motion": 2.00571434,
        "meta_eccentricity": 0.0146981,
        "meta_inclination": 54.9264,
        "meta_ra_of_asc_node": 222.8358,
        "meta_arg_of_pericenter": 51.639,
        "meta_mean_anomaly": 356.7865,
        "meta_ephemeris_type": 0,
        "meta_classification_type": "U",
        "meta_norad_cat_id": 27663,
        "meta_element_set_no": 999,
        "meta_rev_at_epoch": 16734,
        "meta_bstar": 0,
        "meta_mean_motion_dot": 4.7e-07,
        "meta_mean_motion_ddot": 0,
        "tle_line1": "1 27663U 03005A   25335.23823682  .00000047  00000+0  00000+0 0  9993",
        "tle_line2": "2 27663  54.9264 222.8358 0146981  51.6390 356.7865  2.00571434167346"
      },
      "geometry": {
        "type": "Point",
        "coordinates": [
          -74.41574199676063,
          51.72505730024818
        ]
      }
    },
    {
      "type": "Feature",
      "properties": {
        "norad_id": 28190,
        "name": "GPS BIIR-11 (PRN 19)",
        "group": "gps-ops",
        "lat": -41.06056386951717,
        "lon": 141.19846897941753,
        "alt_km": 20067.171755623633,
        "timestamp": "2025-12-02T06:27:53.272645+00:00",
        "meta_object_name": "GPS BIIR-11 (PRN 19)",
        "meta_object_id": "2004-009A",
        "meta_epoch": "2025-11-26T05:14:39.537024",
        "meta_mean_motion": 2.00561394,
        "meta_eccentricity": 0.01080929,
        "meta_inclination": 55.0011,
        "meta_ra_of_asc_node": 283.885,
        "meta_arg_of_pericenter": 167.3745,
        "meta_mean_anomaly": 15.773,
        "meta_ephemeris_type": 0,
        "meta_classification_type": "U",
        "meta_norad_cat_id": 28190,
        "meta_element_set_no": 999,
        "meta_rev_at_epoch": 15887,
        "meta_bstar": 0,
        "meta_mean_motion_dot": -2.4e-07,
        "meta_mean_motion_ddot": 0,
        "tle_line1": "1 28190U 04009A   25330.21851316 -.00000024  00000+0  00000+0 0  9998",
        "tle_line2": "2 28190  55.0011 283.8850 0108092 167.3745  15.7730  2.00561394158873"
      },
      "geometry": {
        "type": "Point",
        "coordinates": [
          141.19846897941753,
          -41.06056386951717
        ]
      }
    },
    {
      "type": "Feature",
      "properties": {
        "norad_id": 28474,
        "name": "GPS BIIR-13 (PRN 02)",
        "group": "gps-ops",
        "lat": -49.90422094811226,
        "lon": -82.72784115021709,
        "alt_km": 19754.101331061498,
        "timestamp": "2025-12-02T06:27:53.272657+00:00",
        "meta_object_name": "GPS BIIR-13 (PRN 02)",
        "meta_object_id": "2004-045A",
        "meta_epoch": "2025-12-01T07:58:00.952608",
        "meta_mean_motion": 2.00568823,
        "meta_eccentricity": 0.01705095,
        "meta_inclination": 55.2462,
        "meta_ra_of_asc_node": 332.865,
        "meta_arg_of_pericenter": 308.7554,
        "meta_mean_anomaly": 26.3129,
        "meta_ephemeris_type": 0,
        "meta_classification_type": "U",
        "meta_norad_cat_id": 28474,
        "meta_element_set_no": 999,
        "meta_rev_at_epoch": 15445,
        "meta_bstar": 0,
        "meta_mean_motion_dot": -5.6e-07,
        "meta_mean_motion_ddot": 0,
        "tle_line1": "1 28474U 04045A   25335.33195547 -.00000056  00000+0  00000+0 0  9993",
        "tle_line2": "2 28474  55.2462 332.8650 0170509 308.7554  26.3129  2.00568823154458"
      },
      "geometry": {
        "type": "Point",
        "coordinates": [
          -82.72784115021709,
          -49.90422094811226
        ]
      }
    },
    {
      "type": "Feature",
      "properties": {
        "norad_id": 28874,
        "name": "GPS BIIRM-1 (PRN 17)",
        "group": "gps-ops",
        "lat": -50.22857958103918,
        "lon": 158.20035517794818,
        "alt_km": 19931.698173888322,
        "timestamp": "2025-12-02T06:27:53.272669+00:00",
        "meta_object_name": "GPS BIIRM-1 (PRN 17)",
        "meta_object_id": "2005-038A",
        "meta_epoch": "2025-11-30T16:16:45.058656",
        "meta_mean_motion": 2.00548966,
        "meta_eccentricity": 0.01328775,
        "meta_inclination": 55.0429,
        "meta_ra_of_asc_node": 281.1867,
        "meta_arg_of_pericenter": 293.3584,
        "meta_mean_anomaly": 248.5646,
        "meta_ephemeris_type": 0,
        "meta_classification_type": "U",
        "meta_norad_cat_id": 28874,
        "meta_element_set_no": 999,
        "meta_rev_at_epoch": 14785,
        "meta_bstar": 0,
        "meta_mean_motion_dot": -4.1e-07,
        "meta_mean_motion_ddot": 0,
        "tle_line1": "1 28874U 05038A   25334.67829929 -.00000041  00000+0  00000+0 0  9998",
        "tle_line2": "2 28874  55.0429 281.1867 0132877 293.3584 248.5646  2.00548966147851"
      },
      "geometry": {
        "type": "Point",
        "coordinates": [
          158.20035517794818,
          -50.22857958103918
        ]
      }
    }
  ]
}